{"type": "FeatureCollection", "features": [ {"type": "Feature", "properties": {"norad_id": 29999, "name": "FENGYUN 1C DEB", "group": "fengyun-1c-debris", "lat": -33.45568259079139, "lon": -25.52786041813806, "alt_km": 963.9134502168736, "timestamp": "2025-12-10T09:57:44.972345+00:00", "meta": {"OBJECT_NAME": "FENGYUN 1C DEB", "OBJECT_ID": "1999-025LZ", "EPOCH": "2025-12-09T18:01:19.563168", "MEAN_MOTION": 14.20128334, "ECCENTRICITY": 0.0189458, "INCLINATION": 98.5761, "RA_OF_ASC_NODE": 328.1052, "ARG_OF_PERICENTER": 135.1709, "MEAN_ANOMALY": 37.8504, "EPHEMERIS_TYPE": 0, "CLASSIFICATION_TYPE": "U", "NORAD_CAT_ID": 29999, "ELEMENT_SET_NO": 999, "REV_AT_EPOCH": 97681, "BSTAR": 0.00042399, "MEAN_MOTION_DOT": 1.04e-05, "MEAN_MOTION_DDOT": 0}, "tle": {"line1": "1 29999U 99025LZ  25343.75092087  .00001040  00000+0  42399-3 0  9992", "line2": "2 29999  98.5761 328.1052 0189458 135.1709  37.8504 14.20128334976814"}}, "geometry": {"type": "Point", "coordinates": [-25.52786041813806, -33.45568259079139]}}, {"type": "Feature", "properties": {"norad_id": 30001, "name": "FENGYUN 1C DEB", "group": "fengyun-1c-debris", "lat": 58.41257062616674, "lon": -105.77418808280967, "alt_km": 731.310350942671, "timestamp": "2025-12-10T09:57:44.972356+00:00", "meta": {"OBJECT_NAME": "FENGYUN 1C DEB", "OBJECT_ID": "1999-025MA", "EPOCH": "2025-12-10T04:31:39.398880", "MEAN_MOTION": 14.38513615, "ECCENTRICITY": 0.0038245, "INCLINATION": 98.9588, "RA_OF_ASC_NODE": 59.1245, "ARG_OF_PERICENTER": 106.1781, "MEAN_ANOMALY": 282.0132, "EPHEMERIS_TYPE": 0, "CLASSIFICATION_TYPE": "U", "NORAD_CAT_ID": 30001, "ELEMENT_SET_NO": 999, "REV_AT_EPOCH": 97395, "BSTAR": 0.0037576, "MEAN_MOTION_DOT": 0.00011554, "MEAN_MOTION_DDOT": 0}, "tle": {"line1": "1 30001U 99025MA  25344.18865045  .00011554  00000+0  37576-2 0  9999", "line2": "2 30001  98.9588  59.1245 0038245 106.1781 282.0132 14.38513615973953"}}, "geometry": {"type": "Point", "coordinates": [-105.77418808280967, 58.41257062616674]}}, {"type": "Feature", "properties": {"norad_id": 30003, "name": "FENGYUN 1C DEB", "group": "fengyun-1c-debris", "lat": 8.490564214973046, "lon": -42.27931743280244, "alt_km": 992.5734574021162, "timestamp": "2025-12-10T09:57:44.972366+00:00", "meta": {"OBJECT_NAME": "FENGYUN 1C DEB", "OBJECT_ID": "1999-025MC", "EPOCH": "2025-12-09T17:26:11.982048", "MEAN_MOTION": 13.85620622, "ECCENTRICITY": 0.0143324, "INCLINATION": 99.5763, "RA_OF_ASC_NODE": 318.4614, "ARG_OF_PERICENTER": 127.8113, "MEAN_ANOMALY": 49.4226, "EPHEMERIS_TYPE": 0, "CLASSIFICATION_TYPE": "U", "NORAD_CAT_ID": 30003, "ELEMENT_SET_NO": 999, "REV_AT_EPOCH": 95446, "BSTAR": 0.00042843, "MEAN_MOTION_DOT": 4.85e-06, "MEAN_MOTION_DDOT": 0}, "tle": {"line1": "1 30003U 99025MC  25343.72652757  .00000485  00000+0  42843-3 0  9999", "line2": "2 30003  99.5763 318.4614 0143324 127.8113  49.4226 13.85620622954464"}}, "geometry": {"type": "Point", "coordinates": [-42.27931743280244, 8.490564214973046]}}, {"type": "Feature", "properties": {"norad_id": 30004, "name": "FENGYUN 1C DEB", "group": "fengyun-1c-debris", "lat": -55.564214965655005, "lon": 179.1578202449762, "alt_km": 822.9169938269824, "timestamp": "2025-12-10T09:57:44.972376+00:00", "meta": {"OBJECT_NAME": "FENGYUN 1C DEB", "OBJECT_ID": "1999-025MD", "EPOCH": "2025-12-09T10:46:30.861120", "MEAN_MOTION": 14.17046179, "ECCENTRICITY": 0.00386681, "INCLINATION": 99.2235, "RA_OF_ASC_NODE": 164.4473, "ARG_OF_PERICENTER": 352.1629, "MEAN_ANOMALY": 65.6566, "EPHEMERIS_TYPE": 0, "CLASSIFICATION_TYPE": "U", "NORAD_CAT_ID": 30004, "ELEMENT_SET_NO": 999, "REV_AT_EPOCH": 97260, "BSTAR": 0.0011820754, "MEAN_MOTION_DOT": 2.348e-05, "MEAN_MOTION_DDOT": 0}, "tle": {"line1": "1 30004U 99025MD  25343.44896830  .00002348  00000+0  11821-2 0  9992", "line2": "2 30004  99.2235 164.4473 0038668 352.1629  65.6566 14.17046179972605"}}, "geometry": {"type": "Point", "coordinates": [179.1578202449762, -55.564214965655005]}}, {"type": "Feature", "properties": {"norad_id": 30005, "name": "FENGYUN 1C DEB", "group": "fengyun-1c-debris", "lat": -43.55345944571342, "lon": -44.528240838591216, "alt_km": 1274.7135649322736, "timestamp": "2025-12-10T09:57:44.972386+00:00", "meta": {"OBJECT_NAME": "FENGYUN 1C DEB", "OBJECT_ID": "1999-025ME", "EPOCH": "2025-12-09T09:19:38.162496", "MEAN_MOTION": 13.52206035, "ECCENTRICITY": 0.0346658, "INCLINATION": 99.3019, "RA_OF_ASC_NODE": 305.5434, "ARG_OF_PERICENTER": 101.84, "MEAN_ANOMALY": 262.1829, "EPHEMERIS_TYPE": 0, "CLASSIFICATION_TYPE": "U", "NORAD_CAT_ID": 30005, "ELEMENT_SET_NO": 999, "REV_AT_EPOCH": 92901, "BSTAR": 0.0016875402, "MEAN_MOTION_DOT": 1.585e-05, "MEAN_MOTION_DDOT": 0}, "tle": {"line1": "1 30005U 99025ME  25343.38863614  .00001585  00000+0  16875-2 0  9996", "line2": "2 30005  99.3019 305.5434 0346658 101.8400 262.1829 13.52206035929019"}}, "geometry": {"type": "Point", "coordinates": [-44.528240838591216, -43.55345944571342]}}, {"type": "Feature", "properties": {"norad_id": 30007, "name": "FENGYUN 1C DEB", "group": "fengyun-1c-debris", "lat": -68.0256101234717, "lon": -90.72568080486714, "alt_km": 815.0359098301951, "timestamp": "2025-12-10T09:57:44.972396+00:00", "meta": {"OBJECT_NAME": "FENGYUN 1C DEB", "OBJECT_ID": "1999-025MG", "EPOCH": "2025-12-09T11:30:46.990656", "MEAN_MOTION": 14.25373311, "ECCENTRICITY": 0.00657157, "INCLINATION": 99.1776, "RA_OF_ASC_NODE": 244.677, "ARG_OF_PERICENTER": 23.9099, "MEAN_ANOMALY": 149.7708, "EPHEMERIS_TYPE": 0, "CLASSIFICATION_TYPE": "U", "NORAD_CAT_ID": 30007, "ELEMENT_SET_NO": 999, "REV_AT_EPOCH": 97309, "BSTAR": 0.0029167545, "MEAN_MOTION_DOT": 6.992e-05, "MEAN_MOTION_DDOT": 0}, "tle": {"line1": "1 30007U 99025MG  25343.47971054  .00006992  00000+0  29168-2 0  9992", "line2": "2 30007  99.1776 244.6770 0065715  23.9099 149.7708 14.25373311973091"}}, "geometry": {"type": "Point", "coordinates": [-90.72568080486714, -68.0256101234717]}}, {"type": "Feature", "properties": {"norad_id": 30008, "name": "FENGYUN 1C DEB", "group": "fengyun-1c-debris", "lat": -25.256223981093836, "lon": 115.99665936376594, "alt_km": 651.6198337920878, "timestamp": "2025-12-10T09:57:44.972407+00:00", "meta": {"OBJECT_NAME": "FENGYUN 1C DEB", "OBJECT_ID": "1999-025MH", "EPOCH": "2025-12-09T20:01:27.242976", "MEAN_MOTION": 14.66190739, "ECCENTRICITY": 0.0038708, "INCLINATION": 99.369, "RA_OF_ASC_NODE": 299.8019, "ARG_OF_PERICENTER": 201.287, "MEAN_ANOMALY": 180.4989, "EPHEMERIS_TYPE": 0, "CLASSIFICATION_TYPE": "U", "NORAD_CAT_ID": 30008, "ELEMENT_SET_NO": 999, "REV_AT_EPOCH": 99017, "BSTAR": 0.0032702, "MEAN_MOTION_DOT": 0.0001818, "MEAN_MOTION_DDOT": 0}, "tle": {"line1": "1 30008U 99025MH  25343.83434309  .00018180  00000+0  32702-2 0  9990", "line2": "2 30008  99.3690 299.8019 0038708 201.2870 180.4989 14.66190739990174"}}, "geometry": {"type": "Point", "coordinates": [115.99665936376594, -25.256223981093836]}}, {"type": "Feature", "properties": {"norad_id": 30009, "name": "FENGYUN 1C DEB", "group": "fengyun-1c-debris", "lat": 58.12274694775628, "lon": 24.563673767700827, "alt_km": 860.8349425390315, "timestamp": "2025-12-10T09:57:44.972417+00:00", "meta": {"OBJECT_NAME": "FENGYUN 1C DEB", "OBJECT_ID": "1999-025MJ", "EPOCH": "2025-12-09T09:45:12.077856", "MEAN_MOTION": 14.04845075, "ECCENTRICITY": 0.00637778, "INCLINATION": 99.0149, "RA_OF_ASC_NODE": 38.3514, "ARG_OF_PERICENTER": 344.9975, "MEAN_ANOMALY": 14.9299, "EPHEMERIS_TYPE": 0, "CLASSIFICATION_TYPE": "U", "NORAD_CAT_ID": 30009, "ELEMENT_SET_NO": 999, "REV_AT_EPOCH": 96436, "BSTAR": 0.0010296232, "MEAN_MOTION_DOT": 1.639e-05, "MEAN_MOTION_DDOT": 0}, "tle": {"line1": "1 30009U 99025MJ  25343.40638979  .00001639  00000+0  10296-2 0  9998", "line2": "2 30009  99.0149  38.3514 0063777 344.9975  14.9299 14.04845075964361"}}, "geometry": {"type": "Point", "coordinates": [24.563673767700827, 58.12274694775628]}}, {"type": "Feature", "properties": {"norad_id": 30010, "name": "FENGYUN 1C DEB", "group": "fengyun-1c-debris", "lat": 77.33356783072881, "lon": 131.1982835264535, "alt_km": 837.9204232856891, "timestamp": "2025-12-10T09:57:44.972429+00:00", "meta": {"OBJECT_NAME": "FENGYUN 1C DEB", "OBJECT_ID": "1999-025MK", "EPOCH": "2025-12-09T18:28:05.817792", "MEAN_MOTION": 14.24984544, "ECCENTRICITY": 0.0072567, "INCLINATION": 99.0699, "RA_OF_ASC_NODE": 175.8276, "ARG_OF_PERICENTER": 217.9768, "MEAN_ANOMALY": 153.7593, "EPHEMERIS_TYPE": 0, "CLASSIFICATION_TYPE": "U", "NORAD_CAT_ID": 30010, "ELEMENT_SET_NO": 999, "REV_AT_EPOCH": 98218, "BSTAR": 0.00024228, "MEAN_MOTION_DOT": 5.35e-06, "MEAN_MOTION_DDOT": 0}, "tle": {"line1": "1 30010U 99025MK  25343.76951178  .00000535  00000+0  24228-3 0  9993", "line2": "2 30010  99.0699 175.8276 0072567 217.9768 153.7593 14.24984544982187"}}, "geometry": {"type": "Point", "coordinates": [131.1982835264535, 77.33356783072881]}}, {"type": "Feature", "properties": {"norad_id": 30012, "name": "FENGYUN 1C DEB", "group": "fengyun-1c-debris", "lat": 1.625482360397328, "lon": 37.35249958913293, "alt_km": 1032.7379451412426, "timestamp": "2025-12-10T09:57:44.972444+00:00", "meta": {"OBJECT_NAME": "FENGYUN 1C DEB", "OBJECT_ID": "1999-025MM", "EPOCH": "2025-12-09T03:01:53.489856", "MEAN_MOTION": 13.85761314, "ECCENTRICITY": 0.0136995, "INCLINATION": 99.4647, "RA_OF_ASC_NODE": 36.3222, "ARG_OF_PERICENTER": 155.2517, "MEAN_ANOMALY": 261.2841, "EPHEMERIS_TYPE": 0, "CLASSIFICATION_TYPE": "U", "NORAD_CAT_ID": 30012, "ELEMENT_SET_NO": 999, "REV_AT_EPOCH": 95498, "BSTAR": 0.00042279481, "MEAN_MOTION_DOT": 4.76e-06, "MEAN_MOTION_DDOT": 0}, "tle": {"line1": "1 30012U 99025MM  25343.12631354  .00000476  00000+0  42279-3 0  9996", "line2": "2 30012  99.4647  36.3222 0136995 155.2517 261.2841 13.85761314954982"}}, "geometry": {"type": "Point", "coordinates": [37.35249958913293, 1.625482360397328]}}]}